{
  "type": "FeatureCollection",
  "features": [
    {
      "type": "Feature",
      "properties": {
        "norad_id": 66484,
        "name": "STARLINK-35371",
        "group": "last-30-days",
        "lat": -41.96111665777784,
        "lon": 18.191865921582124,
        "alt_km": 417.48265695132704,
        "timestamp": "2025-12-08T23:34:02.739121+00:00",
        "meta_object_name": "STARLINK-35371",
        "meta_object_id": "2025-262AE",
        "meta_epoch": "2025-12-08T14:00:01.999872",
        "meta_mean_motion": 15.50584829,
        "meta_eccentricity": 0.0001486,
        "meta_inclination": 43.0004,
        "meta_ra_of_asc_node": 95.3039,
        "meta_arg_of_pericenter": 278.8844,
        "meta_mean_anomaly": 294.6257,
        "meta_ephemeris_type": 0,
        "meta_classification_type": "U",
        "meta_norad_cat_id": 66484,
        "meta_element_set_no": 999,
        "meta_rev_at_epoch": 497,
        "meta_bstar": -0.0011474258,
        "meta_mean_motion_dot": -0.00067095,
        "meta_mean_motion_ddot": 0,
        "tle_line1": "1 66484U 25262AE  25342.58335648 -.00067095  00000+0 -11474-2 0  9990",
        "tle_line2": "2 66484  43.0004  95.3039 0001486 278.8844 294.6257 15.50584829  4972"
      },
      "geometry": {
        "type": "Point",
        "coordinates": [
          18.191865921582124,
          -41.96111665777784
        ]
      }
    },
    {
      "type": "Feature",
      "properties": {
        "norad_id": 66485,
        "name": "STARLINK-34774",
        "group": "last-30-days",
        "lat": 13.041180215318633,
        "lon": -47.24295115313654,
        "alt_km": 414.3482736769929,
        "timestamp": "2025-12-08T23:34:02.739131+00:00",
        "meta_object_name": "STARLINK-34774",
        "meta_object_id": "2025-263A",
        "meta_epoch": "2025-12-08T14:00:01.999872",
        "meta_mean_motion": 15.50797025,
        "meta_eccentricity": 0.00014824,
        "meta_inclination": 42.9997,
        "meta_ra_of_asc_node": 149.4819,
        "meta_arg_of_pericenter": 279.992,
        "meta_mean_anomaly": 172.8721,
        "meta_ephemeris_type": 0,
        "meta_classification_type": "U",
        "meta_norad_cat_id": 66485,
        "meta_element_set_no": 999,
        "meta_rev_at_epoch": 496,
        "meta_bstar": -0.010891314,
        "meta_mean_motion_dot": -0.00597403,
        "meta_mean_motion_ddot": 0,
        "tle_line1": "1 66485U 25263A   25342.58335648 -.00597403  00000+0 -10891-1 0  9994",
        "tle_line2": "2 66485  42.9997 149.4819 0001482 279.9920 172.8721 15.50797025  4968"
      },
      "geometry": {
        "type": "Point",
        "coordinates": [
          -47.24295115313654,
          13.041180215318633
        ]
      }
    },
    {
      "type": "Feature",
      "properties": {
        "norad_id": 66486,
        "name": "STARLINK-34844",
        "group": "last-30-days",
        "lat": 11.716225813646549,
        "lon": -45.71530590035353,
        "alt_km": 413.7985227617137,
        "timestamp": "2025-12-08T23:34:02.739142+00:00",
        "meta_object_name": "STARLINK-34844",
        "meta_object_id": "2025-263B",
        "meta_epoch": "2025-12-08T14:00:01.999872",
        "meta_mean_motion": 15.50600477,
        "meta_eccentricity": 0.00015405,
        "meta_inclination": 43.0001,
        "meta_ra_of_asc_node": 149.4758,
        "meta_arg_of_pericenter": 279.5819,
        "meta_mean_anomaly": 175.2436,
        "meta_ephemeris_type": 0,
        "meta_classification_type": "U",
        "meta_norad_cat_id": 66486,
        "meta_element_set_no": 999,
        "meta_rev_at_epoch": 491,
        "meta_bstar": -0.0013693911,
        "meta_mean_motion_dot": -0.00079924,
        "meta_mean_motion_ddot": 0,
        "tle_line1": "1 66486U 25263B   25342.58335648 -.00079924  00000+0 -13694-2 0  9993",
        "tle_line2": "2 66486  43.0001 149.4758 0001540 279.5819 175.2436 15.50600477  4916"
      },
      "geometry": {
        "type": "Point",
        "coordinates": [
          -45.71530590035353,
          11.716225813646549
        ]
      }
    },
    {
      "type": "Feature",
      "properties": {
        "norad_id": 66487,
        "name": "STARLINK-34733",
        "group": "last-30-days",
        "lat": 10.43548852017263,
        "lon": -44.2589356516794,
        "alt_km": 413.87693567718634,
        "timestamp": "2025-12-08T23:34:02.739152+00:00",
        "meta_object_name": "STARLINK-34733",
        "meta_object_id": "2025-263C",
        "meta_epoch": "2025-12-08T14:00:01.999872",
        "meta_mean_motion": 15.50603594,
        "meta_eccentricity": 0.00015926,
        "meta_inclination": 43.0001,
        "meta_ra_of_asc_node": 149.4724,
        "meta_arg_of_pericenter": 272.3783,
        "meta_mean_anomaly": 184.374,
        "meta_ephemeris_type": 0,
        "meta_classification_type": "U",
        "meta_norad_cat_id": 66487,
        "meta_element_set_no": 999,
        "meta_rev_at_epoch": 496,
        "meta_bstar": -0.0016349306,
        "meta_mean_motion_dot": -0.00095182,
        "meta_mean_motion_ddot": 0,
        "tle_line1": "1 66487U 25263C   25342.58335648 -.00095182  00000+0 -16349-2 0  9998",
        "tle_line2": "2 66487  43.0001 149.4724 0001592 272.3783 184.3740 15.50603594  4965"
      },
      "geometry": {
        "type": "Point",
        "coordinates": [
          -44.2589356516794,
          10.43548852017263
        ]
      }
    },
    {
      "type": "Feature",
      "properties": {
        "norad_id": 66488,
        "name": "STARLINK-35515",
        "group": "last-30-days",
        "lat": 9.151900610267624,
        "lon": -42.82105186688276,
        "alt_km": 414.0876856636396,
        "timestamp": "2025-12-08T23:34:02.739165+00:00",
        "meta_object_name": "STARLINK-35515",
        "meta_object_id": "2025-263D",
        "meta_epoch": "2025-12-08T14:00:01.999872",
        "meta_mean_motion": 15.50604836,
        "meta_eccentricity": 0.00014594,
        "meta_inclination": 43.0001,
        "meta_ra_of_asc_node": 149.4667,
        "meta_arg_of_pericenter": 279.0393,
        "meta_mean_anomaly": 179.6194,
        "meta_ephemeris_type": 0,
        "meta_classification_type": "U",
        "meta_norad_cat_id": 66488,
        "meta_element_set_no": 999,
        "meta_rev_at_epoch": 496,
        "meta_bstar": -0.0014873625,
        "meta_mean_motion_dot": -0.00086718,
        "meta_mean_motion_ddot": 0,
        "tle_line1": "1 66488U 25263D   25342.58335648 -.00086718  00000+0 -14874-2 0  9995",
        "tle_line2": "2 66488  43.0001 149.4667 0001459 279.0393 179.6194 15.50604836  4965"
      },
      "geometry": {
        "type": "Point",
        "coordinates": [
          -42.82105186688276,
          9.151900610267624
        ]
      }
    },
    {
      "type": "Feature",
      "properties": {
        "norad_id": 66489,
        "name": "STARLINK-35696",
        "group": "last-30-days",
        "lat": 7.861775541594609,
        "lon": -41.391663102307625,
        "alt_km": 414.27710693842437,
        "timestamp": "2025-12-08T23:34:02.739175+00:00",
        "meta_object_name": "STARLINK-35696",
        "meta_object_id": "2025-263E",
        "meta_epoch": "2025-12-08T14:00:01.999872",
        "meta_mean_motion": 15.50605981,
        "meta_eccentricity": 0.00016393,
        "meta_inclination": 43.0002,
        "meta_ra_of_asc_node": 149.4619,
        "meta_arg_of_pericenter": 277.7517,
        "meta_mean_anomaly": 182.8267,
        "meta_ephemeris_type": 0,
        "meta_classification_type": "U",
        "meta_norad_cat_id": 66489,
        "meta_element_set_no": 999,
        "meta_rev_at_epoch": 496,
        "meta_bstar": -0.0015620633,
        "meta_mean_motion_dot": -0.00091012,
        "meta_mean_motion_ddot": 0,
        "tle_line1": "1 66489U 25263E   25342.58335648 -.00091012  00000+0 -15621-2 0  9990",
        "tle_line2": "2 66489  43.0002 149.4619 0001639 277.7517 182.8267 15.50605981  4966"
      },
      "geometry": {
        "type": "Point",
        "coordinates": [
          -41.391663102307625,
          7.861775541594609
        ]
      }
    },
    {
      "type": "Feature",
      "properties": {
        "norad_id": 66490,
        "name": "STARLINK-35693",
        "group": "last-30-days",
        "lat": 6.568181808528958,
        "lon": -39.972822424735156,
        "alt_km": 414.4609221296587,
        "timestamp": "2025-12-08T23:34:02.739185+00:00",
        "meta_object_name": "STARLINK-35693",
        "meta_object_id": "2025-263F",
        "meta_epoch": "2025-12-08T14:00:01.999872",
        "meta_mean_motion": 15.50602624,
        "meta_eccentricity": 0.00015652,
        "meta_inclination": 43.0002,
        "meta_ra_of_asc_node": 149.457,
        "meta_arg_of_pericenter": 281.5723,
        "meta_mean_anomaly": 180.9181,
        "meta_ephemeris_type": 0,
        "meta_classification_type": "U",
        "meta_norad_cat_id": 66490,
        "meta_element_set_no": 999,
        "meta_rev_at_epoch": 496,
        "meta_bstar": -0.0013728524,
        "meta_mean_motion_dot": -0.00080129,
        "meta_mean_motion_ddot": 0,
        "tle_line1": "1 66490U 25263F   25342.58335648 -.00080129  00000+0 -13729-2 0  9996",
        "tle_line2": "2 66490  43.0002 149.4570 0001565 281.5723 180.9181 15.50602624  4969"
      },
      "geometry": {
        "type": "Point",
        "coordinates": [
          -39.972822424735156,
          6.568181808528958
        ]
      }
    }
  ]
}